$$SOE
2461302.500000000, A.D. 2026-Sep-19 00:00:00.0000, -1.815459984314927E+08, 6.669838573477853E+07, -6.844422889795952E+06,
2461309.500000000, A.D. 2026-Sep-26 00:00:00.0000, -1.812299904735910E+08, 4.879911565478524E+07, -6.335424199109683E+06,
2461316.500000000, A.D. 2026-Oct-03 00:00:00.0000, -1.795856685710889E+08, 3.054417383472720E+07, -5.780041859446262E+06,
2461323.500000000, A.D. 2026-Oct-10 00:00:00.0000, -1.765018825946462E+08, 1.204657715572861E+07, -5.178386481619502E+06,
2461330.500000000, A.D. 2026-Oct-17 00:00:00.0000, -1.718737448065659E+08, -6.554086511199517E+06, -4.531483250702711E+06,
2461337.500000000, A.D. 2026-Oct-24 00:00:00.0000, -1.656093714111966E+08, -2.508987281327519E+07, -3.841506765983490E+06,
2461344.500000000, A.D. 2026-Oct-31 00:00:00.0000, -1.576381826694556E+08, -4.336449378426323E+07, -3.112008392565332E+06,
2461351.500000000, A.D. 2026-Nov-07 00:00:00.0000, -1.479202999918461E+08, -6.115601277668341E+07, -2.348098791352667E+06,
2461358.500000000, A.D. 2026-Nov-14 00:00:00.0000, -1.364560704774554E+08, -7.822300804360032E+07, -1.556536968723975E+06,
2461365.500000000, A.D. 2026-Nov-21 00:00:00.0000, -1.232942285711912E+08, -9.431458370915414E+07, -7.456740850304738E+05,
2461372.500000000, A.D. 2026-Nov-28 00:00:00.0000, -1.085368794104639E+08, -1.091838514364096E+08, 7.478703370863944E+04,
2461379.500000000, A.D. 2026-Dec-05 00:00:00.0000, -9.233961397882953E+07, -1.226035191316636E+08, 8.942244076117873E+05,
2461386.500000000, A.D. 2026-Dec-12 00:00:00.0000, -7.490580949558413E+07, -1.343813326814461E+08, 1.701684714570172E+06,
2461393.500000000, A.D. 2026-Dec-19 00:00:00.0000, -5.647541305923007E+07, -1.443727480332234E+08, 2.486545142321564E+06,
2461400.500000000, A.D. 2026-Dec-26 00:00:00.0000, -3.730984129552558E+07, -1.524886298549219E+08, 3.239142829175606E+06,
2461407.500000000, A.D. 2027-Jan-02 00:00:00.0000, -1.767552552688367E+07, -1.586969003675213E+08, 3.951272377051033E+06,
2461414.500000000, A.D. 2027-Jan-09 00:00:00.0000, 2.171261098199364E+06, -1.630184659612972E+08, 4.616488230938368E+06,
2461421.500000000, A.D. 2027-Jan-16 00:00:00.0000, 2.199630797332770E+07, -1.655188879789689E+08, 5.230198389182635E+06,
2461428.500000000, A.D. 2027-Jan-23 00:00:00.0000, 4.159516385442445E+07, -1.662977907087085E+08, 5.789579411836259E+06,
2461435.500000000, A.D. 2027-Jan-30 00:00:00.0000, 6.079669461650493E+07, -1.654778974928190E+08, 6.293367458545044E+06,
2461442.500000000, A.D. 2027-Feb-06 00:00:00.0000, 7.946324865233606E+07, -1.631950813094518E+08, 6.741584578883462E+06,
2461449.500000000, A.D. 2027-Feb-13 00:00:00.0000, 9.748845572439788E+07, -1.595901943780076E+08, 7.135249949572377E+06,
2461456.500000000, A.D. 2027-Feb-20 00:00:00.0000, 1.147936537751021E+08, -1.548029114602734E+08, 7.476110089956045E+06,
2461463.500000000, A.D. 2027-Feb-27 00:00:00.0000, 1.313237443773901E+08, -1.489674680111439E+08, 7.766406175015114E+06,
2461470.500000000, A.D. 2027-Mar-06 00:00:00.0000, 1.470430333004501E+08, -1.422099862118129E+08, 8.008684980511114E+06,
2461477.500000000, A.D. 2027-Mar-13 00:00:00.0000, 1.619313861270671E+08, -1.346470264074026E+08, 8.205652795335263E+06,
2461484.500000000, A.D. 2027-Mar-20 00:00:00.0000, 1.759808606768005E+08, -1.263850247830870E+08, 8.360067301114090E+06,
2461491.500000000, A.D. 2027-Mar-27 00:00:00.0000, 1.891928663610513E+08, -1.175203332019251E+08, 8.474660768849283E+06,
2461498.500000000, A.D. 2027-Apr-03 00:00:00.0000, 2.015758333704876E+08, -1.081396408778195E+08, 8.552087915432729E+06,
2461505.500000000, A.D. 2027-Apr-10 00:00:00.0000, 2.131433399169816E+08, -9.832061686267620E+07, 8.594892494938061E+06,
2461512.500000000, A.D. 2027-Apr-17 00:00:00.0000, 2.239126322422458E+08, -8.813266131242286E+07, 8.605487699669536E+06,
2461519.500000000, A.D. 2027-Apr-24 00:00:00.0000, 2.339034710051514E+08, -7.763769112031744E+07, 8.586146454037685E+06,
2461526.500000000, A.D. 2027-May-01 00:00:00.0000, 2.431372431219583E+08, -6.689091282971720E+07, 8.538998578122824E+06,
2461533.500000000, A.D. 2027-May-08 00:00:00.0000, 2.516362861340701E+08, -5.594155423855745E+07, 8.466032612877961E+06,
2461540.500000000, A.D. 2027-May-15 00:00:00.0000, 2.594233789929850E+08, -4.483353893843348E+07, 8.369100881549427E+06,
2461547.500000000, A.D. 2027-May-22 00:00:00.0000, 2.665213612036572E+08, -3.360610008716512E+07, 8.249926534667108E+06,
2461554.500000000, A.D. 2027-May-29 00:00:00.0000, 2.729528543768794E+08, -2.229433392723663E+07, 8.110111319562069E+06,
2461561.500000000, A.D. 2027-Jun-05 00:00:00.0000, 2.787400638743580E+08, -1.092969219772556E+07, 7.951143686266227E+06,
2461568.500000000, A.D. 2027-Jun-12 00:00:00.0000, 2.839046403108622E+08, 4.595828886984419E+05, 7.774407072645126E+06,
2461575.500000000, A.D. 2027-Jun-19 00:00:00.0000, 2.884675863219932E+08, 1.184807520545163E+07, 7.581188071645118E+06,
2461582.500000000, A.D. 2027-Jun-26 00:00:00.0000, 2.924491977751682E+08, 2.321285733686284E+07, 7.372684271959640E+06,
2461589.500000000, A.D. 2027-Jul-03 00:00:00.0000, 2.958690309598297E+08, 3.453319417379861E+07, 7.150011664692890E+06,
2461596.500000000, A.D. 2027-Jul-10 00:00:00.0000, 2.987458891682640E+08, 4.579028268597035E+07, 6.914211564493107E+06,
2461603.500000000, A.D. 2027-Jul-17 00:00:00.0000, 3.010978236154867E+08, 5.696702342495418E+07, 6.666257022091545E+06,
2461610.500000000, A.D. 2027-Jul-24 00:00:00.0000, 3.029421449601436E+08, 6.804781971990100E+07, 6.407058713244066E+06,
2461617.500000000, A.D. 2027-Jul-31 00:00:00.0000, 3.042954428619423E+08, 7.901840125716203E+07, 6.137470302512750E+06,
2461624.500000000, A.D. 2027-Aug-07 00:00:00.0000, 3.051736111015081E+08, 8.986567006955661E+07, 5.858293419061005E+06,
2461631.500000000, A.D. 2027-Aug-14 00:00:00.0000, 3.055918742480311E+08, 1.005775659510928E+08, 5.570282466213800E+06,
2461638.500000000, A.D. 2027-Aug-21 00:00:00.0000, 3.055648152182037E+08, 1.111429455404852E+08, 5.274148965933286E+06,
2461645.500000000, A.D. 2027-Aug-28 00:00:00.0000, 3.051064061930742E+08, 1.215514741850530E+08, 4.970565252414376E+06,
2461652.500000000, A.D. 2027-Sep-04 00:00:00.0000, 3.042300409919537E+08, 1.317935312762306E+08, 4.660167858154260E+06,
2461659.500000000, A.D. 2027-Sep-11 00:00:00.0000, 3.029485669879902E+08, 1.418601268261614E+08, 4.343560696266718E+06,
2461666.500000000, A.D. 2027-Sep-18 00:00:00.0000, 3.012743163287276E+08, 1.517428272730408E+08, 4.021318001589783E+06,
2461673.500000000, A.D. 2027-Sep-25 00:00:00.0000, 2.992191364337787E+08, 1.614336892554897E+08, 3.693987029037409E+06,
2461680.500000000, A.D. 2027-Oct-02 00:00:00.0000, 2.967944196745074E+08, 1.709252003573967E+08, 3.362090528304681E+06,
2461687.500000000, A.D. 2027-Oct-09 00:00:00.0000, 2.940111321541372E+08, 1.802102259269542E+08, 3.026129014279097E+06,
2461694.500000000, A.D. 2027-Oct-16 00:00:00.0000, 2.908798415974955E+08, 1.892819611387918E+08, 2.686582842814311E+06,
2461701.500000000, A.D. 2027-Oct-23 00:00:00.0000, 2.874107445941592E+08, 1.981338876164781E+08, 2.343914085698694E+06,
2461708.500000000, A.D. 2027-Oct-30 00:00:00.0000, 2.836136935802304E+08, 2.067597346318343E+08, 1.998568236447826E+06,
2461715.500000000, A.D. 2027-Nov-06 00:00:00.0000, 2.794982224180099E+08, 2.151534454880478E+08, 1.650975960457146E+06,
2461722.500000000, A.D. 2027-Nov-13 00:00:00.0000, 2.750735686259057E+08, 2.233091465661315E+08, 1.301554916715577E+06,
2461729.500000000, A.D. 2027-Nov-20 00:00:00.0000, 2.703486952263147E+08, 2.312211164656876E+08, 9.507112195606083E+05,
2461736.500000000, A.D. 2027-Nov-27 00:00:00.0000, 2.653323139029476E+08, 2.388837578600115E+08, 5.988406454176009E+05,
2461743.500000000, A.D. 2027-Dec-04 00:00:00.0000, 2.600329075208811E+08, 2.462915726766765E+08, 2.463298554571420E+05,
2461750.500000000, A.D. 2027-Dec-11 00:00:00.0000, 2.544587515442866E+08, 2.534391393733860E+08, -1.064423840562999E+05,
2461757.500000000, A.D. 2027-Dec-18 00:00:00.0000, 2.486179347169414E+08, 2.603210917324774E+08, -4.591040275012851E+05,
2461764.500000000, A.D. 2027-Dec-25 00:00:00.0000, 2.425183792493213E+08, 2.669320989599974E+08, -8.112886274067461E+05,
2461771.500000000, A.D. 2028-Jan-01 00:00:00.0000, 2.361678606471935E+08, 2.732668469155895E+08, -1.162634258439928E+06,
$$EOE